{"type": "FeatureCollection", "features": [ {"type": "Feature", "properties": {"norad_id": 43108, "name": "BEIDOU-3 M8 (C28)", "group": "gnss", "lat": -0.9024436944535204, "lon": 129.74008502044086, "alt_km": 21529.147600751116, "timestamp": "2025-12-03T13:52:09.804621+00:00", "meta": {"OBJECT_NAME": "BEIDOU-3 M8 (C28)", "OBJECT_ID": "2018-003B", "EPOCH": "2025-12-03T07:23:02.934240", "MEAN_MOTION": 1.8623075, "ECCENTRICITY": 0.00047993, "INCLINATION": 54.498, "RA_OF_ASC_NODE": 309.1259, "ARG_OF_PERICENTER": 273.9928, "MEAN_ANOMALY": 85.9385, "EPHEMERIS_TYPE": 0, "CLASSIFICATION_TYPE": "U", "NORAD_CAT_ID": 43108, "ELEMENT_SET_NO": 999, "REV_AT_EPOCH": 5371, "BSTAR": 0, "MEAN_MOTION_DOT": -6.7e-07, "MEAN_MOTION_DDOT": 0}, "tle": {"line1": "1 43108U 18003B   25337.30767285 -.00000067  00000+0  00000+0 0  9998", "line2": "2 43108  54.4980 309.1259 0004799 273.9928  85.9385  1.86230750 53712"}}, "geometry": {"type": "Point", "coordinates": [129.74008502044086, -0.9024436944535204]}}, {"type": "Feature", "properties": {"norad_id": 43207, "name": "BEIDOU-3 M4 (C22)", "group": "gnss", "lat": -49.04459921362649, "lon": -60.699280609188186, "alt_km": 21540.94881987897, "timestamp": "2025-12-03T13:52:09.804632+00:00", "meta": {"OBJECT_NAME": "BEIDOU-3 M4 (C22)", "OBJECT_ID": "2018-018A", "EPOCH": "2025-12-02T03:19:43.852800", "MEAN_MOTION": 1.86230706, "ECCENTRICITY": 0.00040749, "INCLINATION": 56.4768, "RA_OF_ASC_NODE": 69.6557, "ARG_OF_PERICENTER": 15.1369, "MEAN_ANOMALY": 344.8773, "EPHEMERIS_TYPE": 0, "CLASSIFICATION_TYPE": "U", "NORAD_CAT_ID": 43207, "ELEMENT_SET_NO": 999, "REV_AT_EPOCH": 5307, "BSTAR": 0, "MEAN_MOTION_DOT": -4.5e-07, "MEAN_MOTION_DDOT": 0}, "tle": {"line1": "1 43207U 18018A   25336.13870200 -.00000045  00000+0  00000+0 0  9992", "line2": "2 43207  56.4768  69.6557 0004074  15.1369 344.8773  1.86230706 53076"}}, "geometry": {"type": "Point", "coordinates": [-60.699280609188186, -49.04459921362649]}}, {"type": "Feature", "properties": {"norad_id": 43208, "name": "BEIDOU-3 M3 (C21)", "group": "gnss", "lat": -16.762387552931862, "lon": -98.88779238005424, "alt_km": 21538.55010711084, "timestamp": "2025-12-03T13:52:09.804644+00:00", "meta": {"OBJECT_NAME": "BEIDOU-3 M3 (C21)", "OBJECT_ID": "2018-018B", "EPOCH": "2025-12-03T06:41:57.694272", "MEAN_MOTION": 1.86230862, "ECCENTRICITY": 0.00062821, "INCLINATION": 56.4772, "RA_OF_ASC_NODE": 69.6218, "ARG_OF_PERICENTER": 317.5873, "MEAN_ANOMALY": 42.3668, "EPHEMERIS_TYPE": 0, "CLASSIFICATION_TYPE": "U", "NORAD_CAT_ID": 43208, "ELEMENT_SET_NO": 999, "REV_AT_EPOCH": 5309, "BSTAR": 0, "MEAN_MOTION_DOT": -4.9e-07, "MEAN_MOTION_DDOT": 0}, "tle": {"line1": "1 43208U 18018B   25337.27913998 -.00000049  00000+0  00000+0 0  9995", "line2": "2 43208  56.4772  69.6218 0006282 317.5873  42.3668  1.86230862 53096"}}, "geometry": {"type": "Point", "coordinates": [-98.88779238005424, -16.762387552931862]}}, {"type": "Feature", "properties": {"norad_id": 43245, "name": "BEIDOU-3 M9 (C29)", "group": "gnss", "lat": 42.0076663845674, "lon": -13.026406672655128, "alt_km": 21527.285308289953, "timestamp": "2025-12-03T13:52:09.804655+00:00", "meta": {"OBJECT_NAME": "BEIDOU-3 M9 (C29)", "OBJECT_ID": "2018-029A", "EPOCH": "2025-12-01T08:20:14.784576", "MEAN_MOTION": 1.86227904, "ECCENTRICITY": 0.00017985, "INCLINATION": 54.3765, "RA_OF_ASC_NODE": 306.8658, "ARG_OF_PERICENTER": 272.1738, "MEAN_ANOMALY": 87.7976, "EPHEMERIS_TYPE": 0, "CLASSIFICATION_TYPE": "U", "NORAD_CAT_ID": 43245, "ELEMENT_SET_NO": 999, "REV_AT_EPOCH": 5221, "BSTAR": 0, "MEAN_MOTION_DOT": -5.8e-07, "MEAN_MOTION_DDOT": 0}, "tle": {"line1": "1 43245U 18029A   25335.34739334 -.00000058  00000+0  00000+0 0  9994", "line2": "2 43245  54.3765 306.8658 0001798 272.1738  87.7976  1.86227904 52214"}}, "geometry": {"type": "Point", "coordinates": [-13.026406672655128, 42.0076663845674]}}, {"type": "Feature", "properties": {"norad_id": 43246, "name": "BEIDOU-3 M10 (C30)", "group": "gnss", "lat": 53.4202577075266, "lon": 51.79082103933696, "alt_km": 21523.88297463719, "timestamp": "2025-12-03T13:52:09.804666+00:00", "meta": {"OBJECT_NAME": "BEIDOU-3 M10 (C30)", "OBJECT_ID": "2018-029B", "EPOCH": "2025-12-01T06:47:05.876160", "MEAN_MOTION": 1.86228878, "ECCENTRICITY": 0.00039456, "INCLINATION": 54.3738, "RA_OF_ASC_NODE": 306.8948, "ARG_OF_PERICENTER": 359.0854, "MEAN_ANOMALY": 0.9061, "EPHEMERIS_TYPE": 0, "CLASSIFICATION_TYPE": "U", "NORAD_CAT_ID": 43246, "ELEMENT_SET_NO": 999, "REV_AT_EPOCH": 5219, "BSTAR": 0, "MEAN_MOTION_DOT": -5.7e-07, "MEAN_MOTION_DDOT": 0}, "tle": {"line1": "1 43246U 18029B   25335.28270690 -.00000057  00000+0  00000+0 0  9992", "line2": "2 43246  54.3738 306.8948 0003945 359.0854   0.9061  1.86228878 52197"}}, "geometry": {"type": "Point", "coordinates": [51.79082103933696, 53.4202577075266]}}, {"type": "Feature", "properties": {"norad_id": 43286, "name": "IRNSS-1I", "group": "gnss", "lat": -28.553434210850206, "lon": -25.411588515743617, "alt_km": 35768.39319304807, "timestamp": "2025-12-03T13:52:09.804678+00:00", "meta": {"OBJECT_NAME": "IRNSS-1I", "OBJECT_ID": "2018-035A", "EPOCH": "2025-12-02T20:13:42.640032", "MEAN_MOTION": 1.00277629, "ECCENTRICITY": 0.00215449, "INCLINATION": 29.1261, "RA_OF_ASC_NODE": 77.2534, "ARG_OF_PERICENTER": 181.2965, "MEAN_ANOMALY": 171.9757, "EPHEMERIS_TYPE": 0, "CLASSIFICATION_TYPE": "U", "NORAD_CAT_ID": 43286, "ELEMENT_SET_NO": 999, "REV_AT_EPOCH": 2810, "BSTAR": 0, "MEAN_MOTION_DOT": 8.6e-07, "MEAN_MOTION_DDOT": 0}, "tle": {"line1": "1 43286U 18035A   25336.84285463  .00000086  00000+0  00000+0 0  9991", "line2": "2 43286  29.1261  77.2534 0021544 181.2965 171.9757  1.00277629 28104"}}, "geometry": {"type": "Point", "coordinates": [-25.411588515743617, -28.553434210850206]}}, {"type": "Feature", "properties": {"norad_id": 43508, "name": "COSMOS 2527 (756)", "group": "gnss", "lat": 40.65678266376675, "lon": -122.61775485626139, "alt_km": 19125.09159708235, "timestamp": "2025-12-03T13:52:09.804692+00:00", "meta": {"OBJECT_NAME": "COSMOS 2527 (756)", "OBJECT_ID": "2018-053A", "EPOCH": "2025-12-02T22:24:10.714176", "MEAN_MOTION": 2.13102036, "ECCENTRICITY": 0.00086447, "INCLINATION": 65.4673, "RA_OF_ASC_NODE": 80.4595, "ARG_OF_PERICENTER": 224.0767, "MEAN_ANOMALY": 135.8504, "EPHEMERIS_TYPE": 0, "CLASSIFICATION_TYPE": "U", "NORAD_CAT_ID": 43508, "ELEMENT_SET_NO": 999, "REV_AT_EPOCH": 5809, "BSTAR": 0, "MEAN_MOTION_DOT": -2.1e-07, "MEAN_MOTION_DDOT": 0}, "tle": {"line1": "1 43508U 18053A   25336.93345734 -.00000021  00000+0  00000+0 0  9996", "line2": "2 43508  65.4673  80.4595 0008644 224.0767 135.8504  2.13102036 58090"}}, "geometry": {"type": "Point", "coordinates": [-122.61775485626139, 40.65678266376675]}}, {"type": "Feature", "properties": {"norad_id": 43539, "name": "BEIDOU-2 IGSO-7 (C16)", "group": "gnss", "lat": -36.98274956284004, "lon": 16.427457747334515, "alt_km": 35407.892423465084, "timestamp": "2025-12-03T13:52:09.804704+00:00", "meta": {"OBJECT_NAME": "BEIDOU-2 IGSO-7 (C16)", "OBJECT_ID": "2018-057A", "EPOCH": "2025-12-02T22:52:29.161056", "MEAN_MOTION": 1.0025968, "ECCENTRICITY": 0.00924759, "INCLINATION": 55.1727, "RA_OF_ASC_NODE": 164.7578, "ARG_OF_PERICENTER": 235.1616, "MEAN_ANOMALY": 126.6896, "EPHEMERIS_TYPE": 0, "CLASSIFICATION_TYPE": "U", "NORAD_CAT_ID": 43539, "ELEMENT_SET_NO": 999, "REV_AT_EPOCH": 2716, "BSTAR": 0, "MEAN_MOTION_DOT": -2.1e-07, "MEAN_MOTION_DDOT": 0}, "tle": {"line1": "1 43539U 18057A   25336.95311529 -.00000021  00000+0  00000+0 0  9991", "line2": "2 43539  55.1727 164.7578 0092475 235.1616 126.6896  1.00259680 27167"}}, "geometry": {"type": "Point", "coordinates": [16.427457747334515, -36.98274956284004]}}, {"type": "Feature", "properties": {"norad_id": 43564, "name": "GSAT0221 (GALILEO 25)", "group": "gnss", "lat": -56.914797261890534, "lon": -111.48247061897428, "alt_km": 23209.02554404685, "timestamp": "2025-12-03T13:52:09.804715+00:00", "meta": {"OBJECT_NAME": "GSAT0221 (GALILEO 25)", "OBJECT_ID": "2018-060A", "EPOCH": "2025-12-01T09:15:23.303232", "MEAN_MOTION": 1.70475711, "ECCENTRICITY": 0.00066191, "INCLINATION": 57.2301, "RA_OF_ASC_NODE": 347.1247, "ARG_OF_PERICENTER": 279.777, "MEAN_ANOMALY": 80.1905, "EPHEMERIS_TYPE": 0, "CLASSIFICATION_TYPE": "U", "NORAD_CAT_ID": 43564, "ELEMENT_SET_NO": 999, "REV_AT_EPOCH": 4579, "BSTAR": 0, "MEAN_MOTION_DOT": -5.9e-07, "MEAN_MOTION_DDOT": 0}, "tle": {"line1": "1 43564U 18060A   25335.38568638 -.00000059  00000+0  00000+0 0  9995", "line2": "2 43564  57.2301 347.1247 0006619 279.7770  80.1905  1.70475711 45792"}}, "geometry": {"type": "Point", "coordinates": [-111.48247061897428, -56.914797261890534]}}, {"type": "Feature", "properties": {"norad_id": 43565, "name": "GSAT0222 (GALILEO 26)", "group": "gnss", "lat": 39.57897597591311, "lon": 134.90005459831468, "alt_km": 23228.728106737606, "timestamp": "2025-12-03T13:52:09.804729+00:00", "meta": {"OBJECT_NAME": "GSAT0222 (GALILEO 26)", "OBJECT_ID": "2018-060B", "EPOCH": "2025-11-29T06:12:28.687968", "MEAN_MOTION": 1.70475509, "ECCENTRICITY": 0.00061732, "INCLINATION": 57.2346, "RA_OF_ASC_NODE": 347.1853, "ARG_OF_PERICENTER": 259.4518, "MEAN_ANOMALY": 100.5223, "EPHEMERIS_TYPE": 0, "CLASSIFICATION_TYPE": "U", "NORAD_CAT_ID": 43565, "ELEMENT_SET_NO": 999, "REV_AT_EPOCH": 4580, "BSTAR": 0, "MEAN_MOTION_DOT": -5.5e-07, "MEAN_MOTION_DDOT": 0}, "tle": {"line1": "1 43565U 18060B   25333.25866537 -.00000055  00000+0  00000+0 0  9995", "line2": "2 43565  57.2346 347.1853 0006173 259.4518 100.5223  1.70475509 45802"}}, "geometry": {"type": "Point", "coordinates": [134.90005459831468, 39.57897597591311]}}]}